SL-3 R/B                
1 19046U 88032B   19019.50287166  .00000276  00000-0  24864-4 0  9999
2 19046  97.4572  56.9223 0038931 156.2132 204.0904 15.02535713659929
SL-16 R/B               
1 19120U 88039B   19018.95272068  .00000054  00000-0  48715-4 0  9997
2 19120  71.0139 177.7787 0021406  11.7851 348.3770 14.19193710588780
COSMOS 1953             
1 19210U 88050A   19019.52586281  .00000078  00000-0  33140-5 0  9992
2 19210  82.5155 189.5348 0015159  78.1921 282.1005 15.05693924665300
SL-8 R/B                
1 19257U 88053B   19019.09505904  .00000077  00000-0  34333-4 0  9994
2 19257  74.0472 228.5447 0020875 332.6557 156.9939 14.37426830602238
COSMOS 1975             
1 19573U 88093A   19019.46033390  .00000043  00000-0  97803-6 0  9991
2 19573  82.5211 142.8970 0015891 115.9740 244.3126 15.04607385647208
SL-14 R/B               
1 19574U 88093B   19019.46187804  .00000053  00000-0  34866-5 0  9992
2 19574  82.5338 321.5836 0021749   4.3356 134.6873 14.83286564635619
SL-16 R/B               
1 19650U 88102B   19018.92717115 -.00000037  00000-0  54708-5 0  9992
2 19650  70.9967 233.9454 0013622  10.1089 350.0305 14.15775482557911
INTERCOSMOS 24          
1 20261U 89080A   19019.46089274  .00000220  00000-0  61585-4 0  9999
2 20261  82.6025 353.5098 1203033 196.0562 159.9038 12.56032483338935
SL-14 R/B               
1 20262U 89080C   19019.15422491  .00000079  00000-0  18405-4 0  9993
2 20262  82.5918  43.9955 1237284  12.1023 350.7099 12.48910438334236
DELTA 1 R/B             
1 20323U 89089B   19018.69005057  .00000030  00000-0  16624-4 0  9991
2 20323  97.0835 243.0430 0073061  55.5055 305.3013 14.48286441518216
DELTA 2 R/B(1)          
1 20453U 90008B   19019.16081408  .00001102  00000-0  64357-4 0  9992
2 20453  35.6268  52.7025 0284446 326.2752  32.0153 14.84655852534556
COSMOS 2058             
1 20465U 90010A   19018.67732318  .00000197  00000-0  14366-4 0  9994
2 20465  82.4880  49.5855 0016637 135.3229 224.9338 14.97818073572220
SL-14 R/B               
1 20466U 90010B   19019.02629795  .00000070  00000-0  59432-5 0  9993
2 20466  82.5025 189.1079 0019404 227.8781 132.0784 14.81344586563485
SL-14 R/B               
1 20511U 90018B   19018.89560014  .00000069  00000-0  60157-5 0  9998
2 20511  82.5246 133.3190 0017743  13.8213 123.7525 14.80001733536857
HST                     
1 20580U 90037B   19018.71950927  .00000368  00000-0  11454-4 0  9999
2 20580  28.4691 130.1850 0002553 303.7625 187.0521 15.09159738377971
SL-16 R/B               
1 20625U 90046B   19019.16997732 -.00000238  00000-0 -98604-4 0  9994
2 20625  70.9974   9.7468 0016299 299.3990  60.5505 14.14634823479990
COSMOS 2084             
1 20663U 90055A   19018.72296152 -.00000070  00000-0  12088-4 0  9990
2 20663  62.7939  90.0486 0097758 149.3374 211.3484 14.91931914546414
SL-6 R/B(2)             
1 20666U 90055D   19019.20055991 -.00000118  00000-0  72123-5 0  9991
2 20666  62.7865   5.9769 0064641 174.6675 185.5122 14.92207087547874
SL-8 R/B                
1 20775U 90078B   19018.87903322  .00002359  00000-0  11535-3 0  9995
2 20775  82.9292 291.2918 0579718 350.2737   8.7592 14.32830057431878
SL-8 R/B                
1 21088U 91006B   19018.89115248  .00000034  00000-0  19037-4 0  9993
2 21088  82.9441 308.5263 0023445 132.0305 290.4269 13.77107977405255
OKEAN-3                 
1 21397U 91039A   19019.20358987  .00000142  00000-0  11155-4 0  9990
2 21397  82.5234 306.3843 0019464  93.3020 267.0427 14.92755963496453
COSMOS 2151             
1 21422U 91042A   19019.15060719  .00000161  00000-0  13292-4 0  9995
2 21422  82.4989  53.5138 0015041 149.0191 211.1919 14.92015287495128
SL-14 R/B               
1 21423U 91042B   19018.86376288  .00000064  00000-0  54099-5 0  9997
2 21423  82.4954 138.7714 0018507 144.5244 215.7204 14.79752861467415
ERS-1                   
1 21574U 91050A   19018.92676022  .00000013  00000-0  18766-4 0  9993
2 21574  98.5319 329.1957 0033540  24.1613 336.1139 14.37677562441041
ARIANE 40 R/B           
1 21610U 91050F   19018.80932874 -.00000015  00000-0  90520-5 0  9993
2 21610  98.5293  86.3559 0003367  26.1558  83.3698 14.40861119443722
INTERCOSMOS 25          
1 21819U 91086A   19018.66456175 -.00000279  00000-0 -57051-4 0  9996
2 21819  82.5864  75.0979 1516561 290.9078  53.6439 12.04928873182176
SL-14 R/B               
1 21820U 91086B   19018.75401821  .00000070  00000-0  71034-5 0  9991
2 21820  82.5625 135.9861 1576347 142.0344 230.3188 11.93429791176035
SL-8 R/B                
1 21876U 92008B   19019.20139479  .00000096  00000-0  83901-4 0  9998
2 21876  82.9253  45.3825 0034086 210.3047 217.7350 13.75631775351267
SL-8 R/B                
1 21938U 92020B   19018.92690366  .00000027  00000-0  11893-4 0  9991
2 21938  82.9312 289.3074 0029699  14.4601  34.2160 13.75263017342813
SL-16 R/B               
1 22220U 92076B   19019.27059951  .00000243  00000-0  14632-3 0  9998
2 22220  70.9999 276.0687 0010766 111.6853  26.7707 14.16439669353058
SL-16 R/B               
1 22285U 92093B   19019.53113956  .00000258  00000-0  15753-3 0  9994
2 22285  71.0220  72.7509 0005911 303.7334  56.3225 14.15030777344775
COSMOS 2228             
1 22286U 92094A   19018.89485708  .00000151  00000-0  13742-4 0  9990
2 22286  82.5198 186.3495 0021017 357.5129   2.5980 14.88006248387771
SL-16 R/B               
1 22566U 93016B   19018.82310447 -.00000212  00000-0 -85089-4 0  9999
2 22566  71.0084 288.1151 0011895 319.5470  40.4767 14.14959846333404
COSMOS 2242             
1 22626U 93024A   19019.56328705  .00000148  00000-0  13397-4 0  9992
2 22626  82.5203 213.6302 0018837 355.3796   4.7244 14.87868331392590
SL-16 R/B               
1 22803U 93059B   19019.50159659 -.00000140  00000-0 -45962-4 0  9998
2 22803  70.9895 104.4542 0018958 225.6908 134.2661 14.16801470310625
ARIANE 40 R/B           
1 22830U 93061H   19018.93461336 -.00000052  00000-0 -23661-5 0  9990
2 22830  98.8358  56.2324 0011393  35.9049 324.2896 14.31430344321071
COSMOS 2278             
1 23087U 94023A   19019.02576440  .00000287  00000-0  17632-3 0  9995
2 23087  71.0522 224.9755 0007531  38.5269 321.6389 14.13784081276590
SL-16 R/B               
1 23088U 94023B   19018.86621195  .00000116  00000-0  85293-4 0  9995
2 23088  71.0009 143.2883 0005464 287.2340  72.8184 14.14673324277397
SL-16 R/B               
1 23343U 94074B   19018.76825519  .00000022  00000-0  10557-4 0  9997
2 23343  98.0758  68.9487 0007208  20.4582  95.7875 14.76761379302517
SL-16 R/B               
1 23405U 94077B   19019.49848248 -.00000298  00000-0 -12874-3 0  9994
2 23405  70.9833  73.1892 0002980 214.1718 145.9213 14.15206395247755
ERS-2                   
1 23560U 95021A   19019.31522685  .00000726  00000-0  35410-4 0  9997
2 23560  98.5109  99.5382 0004631 120.8793 239.2896 15.22241097263755
ARIANE 40+ R/B          
1 23561U 95021B   19019.11078066  .00000012  00000-0  19395-4 0  9997
2 23561  98.7802  43.6285 0006580 349.2467  47.1432 14.37904753244739
SL-16 R/B               
1 23705U 95058B   19018.93243191 -.00000168  00000-0 -62073-4 0  9994
2 23705  71.0212 250.5801 0010799 141.6548 218.5344 14.15122407199045
SL-16 R/B               
1 24298U 96051B   19018.94427646 -.00000071  00000-0 -12165-4 0  9996
2 24298  70.8260 277.6853 0013202  31.6131 328.5780 14.12391882153563
ORBVIEW 2 (SEASTAR)     
1 24883U 97037A   19019.42965065 -.00000010  00000-0  12178-4 0  9993
2 24883  98.5740 131.5031 0002593 163.0243 197.1029 14.33486509135182
SL-16 R/B               
1 25400U 98043G   19018.93260456 -.00000043  00000-0  11939-6 0  9996
2 25400  98.5583 320.8474 0010713  43.5536 316.6488 14.25436546 67804
SL-16 R/B               
1 25407U 98045B   19018.92616376  .00000200  00000-0  12599-3 0  9994
2 25407  71.0105 261.0087 0006449  27.4279 332.7183 14.15779692 58115
ISS (ZARYA)             
1 25544U 98067A   19019.73457176  .00012913  00000-0  20903-3 0  9993
2 25544  51.6426  19.5834 0004440 281.5640  64.0422 15.53169016152186
SL-8 R/B                
1 25723U 99022C   19018.91652379  .00006276  00000-0  73424-4 0  9997
2 25723  48.4149 290.3111 0007291 328.2270  31.8238 15.62872803 96766
CZ-4B R/B               
1 25732U 99025C   19019.18089709 -.00000020  00000-0  12547-4 0  9992
2 25732  98.9863  38.0310 0036553 237.2021 164.4580 14.17658773 18958
OKEAN-O                 
1 25860U 99039A   19018.63313520  .00000022  00000-0  10878-4 0  9995
2 25860  98.2250  23.1078 0001852  86.7533 273.3888 14.76585933 49483
SL-16 R/B               
1 25861U 99039B   19018.91988889  .00000015  00000-0  94973-5 0  9994
2 25861  98.1756   6.7789 0016085  18.5268  37.6884 14.78513189 51444
TERRA                   
1 25994U 99068A   19019.21776926  .00000110  00000-0  34408-4 0  9996
2 25994  98.2091  95.9435 0001239 105.5054 254.6302 14.57115868 15284
ENVISAT                 
1 27386U 02009A   19019.51746503  .00000011  00000-0  17106-4 0  9999
2 27386  98.1632  48.1172 0001174  88.8569  31.2836 14.37939399884614
IDEFIX & ARIANE 42P R/B 
1 27422U 02021B   19019.00365512 -.00000035  00000-0  23042-5 0  9999
2 27422  98.2815 358.5591 0011529 320.3222  39.7117 14.29267423869641
AQUA                    
1 27424U 02022A   19019.51894551  .00000033  00000-0  17309-4 0  9993
2 27424  98.2192 322.5280 0002527 112.4994 285.0282 14.57104498888936
CZ-4B R/B               
1 27432U 02024C   19018.94752737 -.00000026  00000-0  10368-4 0  9990
2 27432  99.0569   8.1357 0050275 190.0077 223.6416 14.14074597860791
MIDORI II (ADEOS-II)    
1 27597U 02056A   19018.97527892  .00000001  00000-0  17649-4 0  9993
2 27597  98.4526 336.5453 0002105  74.7265 285.4149 14.27381567838279
H-2A R/B                
1 27601U 02056E   19019.18422008  .00000037  00000-0  28460-4 0  9998
2 27601  98.2991  74.4348 0072265  11.7655  53.7097 14.31874199840957
